Skip Page Navigation
NASA Logo - Jet Propulsion Laboratory				+ View the NASA Portal
+ Center for Near-Earth Object Studies			
JPL Home	Earth	Solar System	Stars & Galaxies	Technology

JPL Solar System Dynamics
BODIES		ORBITS		EPHEMERIDES		TOOLS		PHYSICAL DATA		DISCOVERY		FAQ		SITE MAP

IMPORTANT: The SSD Announcement email list is now available. Major changes are coming in the near future, including possible hostname and/or URL changes. To be notified of such changes, subscribe to this email list.

Please visit this page for more details.


Don't show this message again
HORIZONS Web-Interface
This tool provides a web-based limited interface to JPL's HORIZONS system which can be used to generate ephemerides for solar-system bodies. Full access to HORIZONS features is available via the primary telnet interface. HORIZONS system news shows recent changes and improvements. A web-interface tutorial is available to assist new users.
Current Settings
Ephemeris Type [change] : 	ELEMENTS
Target Body [change] : 	90377 Sedna (2003 VB12)
Center [change] : 	Solar System Barycenter (SSB) [500@0]
Time Span [change] : 	Start=JD 2458850.0, Stop=JD 2464329.0, Intervals=500
Table Settings [change] : 	CSV format=YES
Display/Output [change] : 	default (formatted HTML)
Object Data Page
JPL/HORIZONS               90377 Sedna (2003 VB12)         2020-May-15 19:44:51
Rec #:   90377 (+COV) Soln.date: 2020-Feb-23_22:09:35    # obs: 210 (1990-2020)
 
IAU76/J2000 helio. ecliptic osc. elements (au, days, deg., period=Julian yrs):
 
  EPOCH=  2456885.5 ! 2014-Aug-16.00 (TDB)         Residual RMS= .15768
   EC= .8562663149087532   QR= 76.10922526302488   TP= 2479347.2590802494
   OM= 144.5405760871448   W=  311.2338028762853   IN= 11.92866878100013
   A= 529.5155774702935    MA= 358.1831054282247   ADIST= 982.921929677562
   PER= 12185.02222        N= 8.0888E-5            ANGMOM= .204465592
   DAN= 90.3091            DDN= 324.32724          L= 96.3952405
   B= -8.9422637           MOID= 75.13819885       TP= 2076-Feb-13.7590802494
 
Asteroid physical parameters (km, seconds, rotational period in hours):
   GM= n.a.                RAD= n.a.               ROTPER= 10.273
   H= 1.3                  G= .150                 B-V= n.a.
                           ALBEDO= n.a.            STYP= n.a.
 
ASTEROID comments: 
1: soln ref.= JPL#30, OCC=2
2: source=ORB
Results
*******************************************************************************
Ephemeris / WWW_USER Fri May 15 19:44:51 2020 Pasadena, USA      / Horizons    
*******************************************************************************
Target body name: 90377 Sedna (2003 VB12)         {source: JPL#30}
Center body name: Solar System Barycenter (0)     {source: DE431}
Center-site name: BODY CENTER
*******************************************************************************
Start time      : A.D. 2020-Jan-01 12:00:00.0000 TDB
Stop  time      : A.D. 2035-Jan-01 12:00:00.0000 TDB
Step-size       : 500 steps
*******************************************************************************
Center geodetic : 0.00000000,0.00000000,0.0000000 {E-lon(deg),Lat(deg),Alt(km)}
Center cylindric: 0.00000000,0.00000000,0.0000000 {E-lon(deg),Dxy(km),Dz(km)}
Center radii    : (undefined)                                                  
Keplerian GM    : 2.9630927492415936E-04 au^3/d^2
Small perturbers: Yes                             {source: SB431-N16}
Output units    : AU-D, deg, Julian Day Number (Tp)                            
Output type     : GEOMETRIC osculating elements
Output format   : 10
Reference frame : ICRF/J2000.0                                                 
Coordinate systm: Ecliptic and Mean Equinox of Reference Epoch                 
*******************************************************************************
Initial IAU76/J2000 heliocentric ecliptic osculating elements (au, days, deg.):
  EPOCH=  2456885.5 ! 2014-Aug-16.00 (TDB)         Residual RMS= .15768        
   EC= .8562663149087532   QR= 76.10922526302488   TP= 2479347.2590802494      
   OM= 144.5405760871448   W=  311.2338028762853   IN= 11.92866878100013       
  Equivalent ICRF heliocentric equatorial cartesian coordinates (au, au/d):
   X= 4.951494265641213E+01  Y= 6.971648020603577E+01  Z= 1.080897880339717E+01
  VX=-2.394529886924150E-03 VY= 6.118794943411146E-04 VZ= 4.465364830006862E-04
Asteroid physical parameters (km, seconds, rotational period in hours):        
   GM= n.a.                RAD= n.a.               ROTPER= 10.273              
   H= 1.3                  G= .150                 B-V= n.a.                   
                           ALBEDO= n.a.            STYP= n.a.                  
*******************************************************************************
            JDTDB,            Calendar Date (TDB),                     EC,                     QR,                     IN,                     OM,                      W,                     Tp,                      N,                     MA,                     TA,                      A,                     AD,                     PR,
**************************************************************************************************************************************************************************************************************************************************************************************************************************************************
$$SOE
2460077.296000000, A.D. 2023-May-12 19:06:14.4000,  8.495206468702520E-01,  7.618838722609219E+01,  1.192853094204579E+01,  1.444017026194350E+02,  3.112892650557754E+02,  2.479349514319855E+06,  8.657200146143838E-05,  3.583315654874484E+02,  3.235413344675580E+02,  5.063045902410278E+02,  9.364207932559632E+02,  4.158388323277407E+06,
2460088.254000000, A.D. 2023-May-23 18:05:45.6000,  8.495206396559158E-01,  7.618838716533273E+01,  1.192853094595650E+01,  1.444017023959772E+02,  3.112892655134266E+02,  2.479349514471466E+06,  8.657200779069895E-05,  3.583325140084056E+02,  3.235596424966608E+02,  5.063045655638155E+02,  9.364207439622984E+02,  4.158388019258546E+06,
2460099.212000000, A.D. 2023-Jun-03 17:05:16.8000,  8.495206324870436E-01,  7.618838710242997E+01,  1.192853094992054E+01,  1.444017021703292E+02,  3.112892659780879E+02,  2.479349514624951E+06,  8.657201408437796E-05,  3.583334625300242E+02,  3.235779540287184E+02,  5.063045410253355E+02,  9.364206949482412E+02,  4.158387716948847E+06,
2460110.170000000, A.D. 2023-Jun-14 16:04:48.0000,  8.495206253665124E-01,  7.618838703743452E+01,  1.192853095393794E+01,  1.444017019425070E+02,  3.112892664495881E+02,  2.479349514780226E+06,  8.657202033990876E-05,  3.583344110523598E+02,  3.235962690633753E+02,  5.063045166355948E+02,  9.364206462337552E+02,  4.158387416471600E+06,
2460121.128000000, A.D. 2023-Jun-25 15:04:19.2000,  8.495206182974685E-01,  7.618838697039709E+01,  1.192853095800871E+01,  1.444017017125257E+02,  3.112892669277539E+02,  2.479349514937200E+06,  8.657202655448842E-05,  3.583353595754728E+02,  3.236145876002773E+02,  5.063044924055218E+02,  9.364205978406466E+02,  4.158387117961436E+06,
2460132.086000000, A.D. 2023-Jul-06 14:03:50.4000,  8.495206112828754E-01,  7.618838690137142E+01,  1.192853096213283E+01,  1.444017014804039E+02,  3.112892674124026E+02,  2.479349515095782E+06,  8.657203272546772E-05,  3.583363080994206E+02,  3.236329096390750E+02,  5.063044683454454E+02,  9.364205497895193E+02,  4.158386821545606E+06,
2460143.044000000, A.D. 2023-Jul-17 13:03:21.6000,  8.495206043256593E-01,  7.618838683041558E+01,  1.192853096631019E+01,  1.444017012461635E+02,  3.112892679033377E+02,  2.479349515255877E+06,  8.657203885022252E-05,  3.583372566242606E+02,  3.236512351794277E+02,  5.063044444655970E+02,  9.364205021007783E+02,  4.158386527350161E+06,
2460154.002000000, A.D. 2023-Jul-28 12:02:52.8000,  8.495205974282291E-01,  7.618838675757625E+01,  1.192853097054074E+01,  1.444017010098235E+02,  3.112892684004005E+02,  2.479349515417408E+06,  8.657204492659585E-05,  3.583382051500391E+02,  3.236695642209581E+02,  5.063044207743860E+02,  9.364204547911958E+02,  4.158386235478702E+06,
2460164.960000000, A.D. 2023-Aug-08 11:02:24.0000,  8.495205905932497E-01,  7.618838668291406E+01,  1.192853097482429E+01,  1.444017007714098E+02,  3.112892689033872E+02,  2.479349515580280E+06,  8.657205095218210E-05,  3.583391536768090E+02,  3.236878967633262E+02,  5.063043972811919E+02,  9.364204078794697E+02,  4.158385946046782E+06,
2460175.918000000, A.D. 2023-Aug-19 10:01:55.2000,  8.495205838230415E-01,  7.618838660648855E+01,  1.192853097916061E+01,  1.444017005309512E+02,  3.112892694120972E+02,  2.479349515744403E+06,  8.657205692487972E-05,  3.583401022046168E+02,  3.237062328061839E+02,  5.063043739942083E+02,  9.364203613819280E+02,  4.158385659155344E+06,
2460186.876000000, A.D. 2023-Aug-30 09:01:26.4000,  8.495205771204031E-01,  7.618838652835595E+01,  1.192853098354957E+01,  1.444017002884700E+02,  3.112892699263396E+02,  2.479349515909683E+06,  8.657206284217703E-05,  3.583410507335169E+02,  3.237245723491783E+02,  5.063043509232280E+02,  9.364203153181002E+02,  4.158385374925035E+06,
2460197.834000000, A.D. 2023-Sep-10 08:00:57.6000,  8.495205704875868E-01,  7.618838644857763E+01,  1.192853098799088E+01,  1.444017000439966E+02,  3.112892704459083E+02,  2.479349516076031E+06,  8.657206870202641E-05,  3.583419992635545E+02,  3.237429153919625E+02,  5.063043280762343E+02,  9.364202697038910E+02,  4.158385093454206E+06,
2460208.792000000, A.D. 2023-Sep-21 07:00:28.8000,  8.495205639269628E-01,  7.618838636721226E+01,  1.192853099248431E+01,  1.444016997975590E+02,  3.112892709706055E+02,  2.479349516243355E+06,  8.657207450228026E-05,  3.583429477947766E+02,  3.237612619341817E+02,  5.063043054616003E+02,  9.364202245559884E+02,  4.158384814846013E+06,
2460219.750000000, A.D. 2023-Oct-02 06:00:00.0000,  8.495205574405528E-01,  7.618838628433102E+01,  1.192853099702940E+01,  1.444016995491968E+02,  3.112892715001934E+02,  2.479349516411555E+06,  8.657208024107505E-05,  3.583438963272258E+02,  3.237796119755084E+02,  5.063042830865918E+02,  9.364201798888524E+02,  4.158384539189969E+06,
